{
  "type": "FeatureCollection",
  "features": [
    {
      "type": "Feature",
      "properties": {
        "norad_id": 66691,
        "name": "TRANSPORTER-15AB",
        "group": "last-30-days",
        "lat": 59.934514553835264,
        "lon": 60.299523907993084,
        "alt_km": 510.5294577750619,
        "timestamp": "2025-12-27T20:30:58.021492+00:00",
        "meta_object_name": "TRANSPORTER-15AB",
        "meta_object_id": "2025-276AB",
        "meta_epoch": "2025-12-27T10:45:10.931616",
        "meta_mean_motion": 15.17397401,
        "meta_eccentricity": 0.0003925,
        "meta_inclination": 97.4411,
        "meta_ra_of_asc_node": 72.9486,
        "meta_arg_of_pericenter": 228.3568,
        "meta_mean_anomaly": 131.733,
        "meta_ephemeris_type": 0,
        "meta_classification_type": "U",
        "meta_norad_cat_id": 66691,
        "meta_element_set_no": 999,
        "meta_rev_at_epoch": 435,
        "meta_bstar": 0.0006094,
        "meta_mean_motion_dot": 0.00012125,
        "meta_mean_motion_ddot": 0,
        "tle_line1": "1 66691U 25276AB  25361.44804319  .00012125  00000+0  60940-3 0  9992",
        "tle_line2": "2 66691  97.4411  72.9486 0003925 228.3568 131.7330 15.17397401  4353"
      },
      "geometry": {
        "type": "Point",
        "coordinates": [
          60.299523907993084,
          59.934514553835264
        ]
      }
    },
    {
      "type": "Feature",
      "properties": {
        "norad_id": 66692,
        "name": "TRANSPORTER-15AC",
        "group": "last-30-days",
        "lat": 77.099046791978,
        "lon": 38.56627470228474,
        "alt_km": 507.4530295203631,
        "timestamp": "2025-12-27T20:30:58.021502+00:00",
        "meta_object_name": "TRANSPORTER-15AC",
        "meta_object_id": "2025-276AC",
        "meta_epoch": "2025-12-27T10:40:18.187680",
        "meta_mean_motion": 15.17466274,
        "meta_eccentricity": 0.0001878,
        "meta_inclination": 97.4412,
        "meta_ra_of_asc_node": 72.9568,
        "meta_arg_of_pericenter": 239.6097,
        "meta_mean_anomaly": 120.4951,
        "meta_ephemeris_type": 0,
        "meta_classification_type": "U",
        "meta_norad_cat_id": 66692,
        "meta_element_set_no": 999,
        "meta_rev_at_epoch": 435,
        "meta_bstar": 0.00034929,
        "meta_mean_motion_dot": 6.929e-05,
        "meta_mean_motion_ddot": 0,
        "tle_line1": "1 66692U 25276AC  25361.44465495  .00006929  00000+0  34929-3 0  9994",
        "tle_line2": "2 66692  97.4412  72.9568 0001878 239.6097 120.4951 15.17466274  4352"
      },
      "geometry": {
        "type": "Point",
        "coordinates": [
          38.56627470228474,
          77.099046791978
        ]
      }
    },
    {
      "type": "Feature",
      "properties": {
        "norad_id": 66693,
        "name": "TRANSPORTER-15AD",
        "group": "last-30-days",
        "lat": 80.12981291200208,
        "lon": 24.687226498596623,
        "alt_km": 507.4590856210234,
        "timestamp": "2025-12-27T20:30:58.021514+00:00",
        "meta_object_name": "TRANSPORTER-15AD",
        "meta_object_id": "2025-276AD",
        "meta_epoch": "2025-12-27T10:39:20.503584",
        "meta_mean_motion": 15.17752416,
        "meta_eccentricity": 0.0003326,
        "meta_inclination": 97.4366,
        "meta_ra_of_asc_node": 72.9358,
        "meta_arg_of_pericenter": 253.0047,
        "meta_mean_anomaly": 107.0823,
        "meta_ephemeris_type": 0,
        "meta_classification_type": "U",
        "meta_norad_cat_id": 66693,
        "meta_element_set_no": 999,
        "meta_rev_at_epoch": 435,
        "meta_bstar": 0.0007873,
        "meta_mean_motion_dot": 0.00015851,
        "meta_mean_motion_ddot": 0,
        "tle_line1": "1 66693U 25276AD  25361.44398731  .00015851  00000+0  78730-3 0  9995",
        "tle_line2": "2 66693  97.4366  72.9358 0003326 253.0047 107.0823 15.17752416  4358"
      },
      "geometry": {
        "type": "Point",
        "coordinates": [
          24.687226498596623,
          80.12981291200208
        ]
      }
    },
    {
      "type": "Feature",
      "properties": {
        "norad_id": 66694,
        "name": "YAM-9",
        "group": "last-30-days",
        "lat": 82.34117269561021,
        "lon": -30.243253361749556,
        "alt_km": 506.3035836501431,
        "timestamp": "2025-12-27T20:30:58.021524+00:00",
        "meta_object_name": "YAM-9",
        "meta_object_id": "2025-276AE",
        "meta_epoch": "2025-12-27T10:37:07.015584",
        "meta_mean_motion": 15.17639781,
        "meta_eccentricity": 0.0001639,
        "meta_inclination": 97.4413,
        "meta_ra_of_asc_node": 72.9548,
        "meta_arg_of_pericenter": 229.1926,
        "meta_mean_anomaly": 130.9166,
        "meta_ephemeris_type": 0,
        "meta_classification_type": "U",
        "meta_norad_cat_id": 66694,
        "meta_element_set_no": 999,
        "meta_rev_at_epoch": 435,
        "meta_bstar": 0.00046166,
        "meta_mean_motion_dot": 9.228e-05,
        "meta_mean_motion_ddot": 0,
        "tle_line1": "1 66694U 25276AE  25361.44244231  .00009228  00000+0  46166-3 0  9990",
        "tle_line2": "2 66694  97.4413  72.9548 0001639 229.1926 130.9166 15.17639781  4352"
      },
      "geometry": {
        "type": "Point",
        "coordinates": [
          -30.243253361749556,
          82.34117269561021
        ]
      }
    },
    {
      "type": "Feature",
      "properties": {
        "norad_id": 66695,
        "name": "IRIDE FM1",
        "group": "last-30-days",
        "lat": 17.740681869827217,
        "lon": -104.21728574438133,
        "alt_km": 509.83823896011927,
        "timestamp": "2025-12-27T20:30:58.021534+00:00",
        "meta_object_name": "IRIDE FM1",
        "meta_object_id": "2025-276AF",
        "meta_epoch": "2025-12-27T03:59:18.364128",
        "meta_mean_motion": 15.18339535,
        "meta_eccentricity": 0.00021852,
        "meta_inclination": 97.4402,
        "meta_ra_of_asc_node": 72.7092,
        "meta_arg_of_pericenter": 144.0483,
        "meta_mean_anomaly": 216.0899,
        "meta_ephemeris_type": 0,
        "meta_classification_type": "U",
        "meta_norad_cat_id": 66695,
        "meta_element_set_no": 999,
        "meta_rev_at_epoch": 431,
        "meta_bstar": 0.0013520381,
        "meta_mean_motion_dot": 0.00027776,
        "meta_mean_motion_ddot": 0,
        "tle_line1": "1 66695U 25276AF  25361.16618477  .00027776  00000+0  13520-2 0  9992",
        "tle_line2": "2 66695  97.4402  72.7092 0002185 144.0483 216.0899 15.18339535  4313"
      },
      "geometry": {
        "type": "Point",
        "coordinates": [
          -104.21728574438133,
          17.740681869827217
        ]
      }
    },
    {
      "type": "Feature",
      "properties": {
        "norad_id": 66696,
        "name": "IRIDE FM2",
        "group": "last-30-days",
        "lat": 73.82423731606042,
        "lon": 46.57338486237984,
        "alt_km": 508.1688708427091,
        "timestamp": "2025-12-27T20:30:58.021544+00:00",
        "meta_object_name": "IRIDE FM2",
        "meta_object_id": "2025-276AG",
        "meta_epoch": "2025-12-27T10:41:18.753216",
        "meta_mean_motion": 15.17469634,
        "meta_eccentricity": 0.0002591,
        "meta_inclination": 97.4382,
        "meta_ra_of_asc_node": 72.9405,
        "meta_arg_of_pericenter": 243.1369,
        "meta_mean_anomaly": 116.96,
        "meta_ephemeris_type": 0,
        "meta_classification_type": "U",
        "meta_norad_cat_id": 66696,
        "meta_element_set_no": 999,
        "meta_rev_at_epoch": 435,
        "meta_bstar": 0.00029071,
        "meta_mean_motion_dot": 5.756e-05,
        "meta_mean_motion_ddot": 0,
        "tle_line1": "1 66696U 25276AG  25361.44535594  .00005756  00000+0  29071-3 0  9995",
        "tle_line2": "2 66696  97.4382  72.9405 0002591 243.1369 116.9600 15.17469634  4351"
      },
      "geometry": {
        "type": "Point",
        "coordinates": [
          46.57338486237984,
          73.82423731606042
        ]
      }
    },
    {
      "type": "Feature",
      "properties": {
        "norad_id": 66697,
        "name": "IRIDE FM3",
        "group": "last-30-days",
        "lat": 25.825719209502655,
        "lon": -102.99874788376476,
        "alt_km": 509.32418107398735,
        "timestamp": "2025-12-27T20:30:58.021557+00:00",
        "meta_object_name": "IRIDE FM3",
        "meta_object_id": "2025-276AH",
        "meta_epoch": "2025-12-27T11:55:54.599808",
        "meta_mean_motion": 15.18232938,
        "meta_eccentricity": 0.000155,
        "meta_inclination": 97.4382,
        "meta_ra_of_asc_node": 73.0244,
        "meta_arg_of_pericenter": 149.4929,
        "meta_mean_anomaly": 210.6395,
        "meta_ephemeris_type": 0,
        "meta_classification_type": "U",
        "meta_norad_cat_id": 66697,
        "meta_element_set_no": 999,
        "meta_rev_at_epoch": 436,
        "meta_bstar": 0.00035749,
        "meta_mean_motion_dot": 7.252e-05,
        "meta_mean_motion_ddot": 0,
        "tle_line1": "1 66697U 25276AH  25361.49715972  .00007252  00000+0  35749-3 0  9993",
        "tle_line2": "2 66697  97.4382  73.0244 0001550 149.4929 210.6395 15.18232938  4369"
      },
      "geometry": {
        "type": "Point",
        "coordinates": [
          -102.99874788376476,
          25.825719209502655
        ]
      }
    }
  ]
}